{
  "type": "FeatureCollection",
  "features": [
    {
      "type": "Feature",
      "geometry": {
        "type": "Point",
        "coordinates": [
          88.721,
          26.535
        ]
      },
      "properties": {
        "count": 2
      }
    },
    {
      "type": "Feature",
      "geometry": {
        "type": "Point",
        "coordinates": [
          88.71,
          26.535
        ]
      },
      "properties": {
        "count": 1
      }
    },
    {
      "type": "Feature",
      "geometry": {
        "type": "Point",
        "coordinates": [
          88.728,
          26.547
        ]
      },
      "properties": {
        "count": 2
      }
    },
    {
      "type": "Feature",
      "geometry": {
        "type": "Point",
        "coordinates": [
          88.734,
          26.54
        ]
      },
      "properties": {
        "count": 5
      }
    },
    {
      "type": "Feature",
      "geometry": {
        "type": "Point",
        "coordinates": [
          88.7,
          26.552
        ]
      },
      "properties": {
        "count": 1
      }
    },
    {
      "type": "Feature",
      "geometry": {
        "type": "Point",
        "coordinates": [
          88.716,
          26.533
        ]
      },
      "properties": {
        "count": 3
      }
    },
    {
      "type": "Feature",
      "geometry": {
        "type": "Point",
        "coordinates": [
          88.7,
          26.537
        ]
      },
      "properties": {
        "count": 2
      }
    },
    {
      "type": "Feature",
      "geometry": {
        "type": "Point",
        "coordinates": [
          88.719,
          26.552
        ]
      },
      "properties": {
        "count": 1
      }
    },
    {
      "type": "Feature",
      "geometry": {
        "type": "Point",
        "coordinates": [
          88.701,
          26.535
        ]
      },
      "properties": {
        "count": 2
      }
    },
    {
      "type": "Feature",
      "geometry": {
        "type": "Point",
        "coordinates": [
          88.719,
          26.548
        ]
      },
      "properties": {
        "count": 3
      }
    },
    {
      "type": "Feature",
      "geometry": {
        "type": "Point",
        "coordinates": [
          88.723,
          26.542
        ]
      },
      "properties": {
        "count": 1
      }
    },
    {
      "type": "Feature",
      "geometry": {
        "type": "Point",
        "coordinates": [
          88.717,
          26.551
        ]
      },
      "properties": {
        "count": 3
      }
    },
    {
      "type": "Feature",
      "geometry": {
        "type": "Point",
        "coordinates": [
          88.732,
          26.541
        ]
      },
      "properties": {
        "count": 2
      }
    },
    {
      "type": "Feature",
      "geometry": {
        "type": "Point",
        "coordinates": [
          88.723,
          26.55
        ]
      },
      "properties": {
        "count": 1
      }
    },
    {
      "type": "Feature",
      "geometry": {
        "type": "Point",
        "coordinates": [
          88.698,
          26.532
        ]
      },
      "properties": {
        "count": 2
      }
    },
    {
      "type": "Feature",
      "geometry": {
        "type": "Point",
        "coordinates": [
          88.721,
          26.546
        ]
      },
      "properties": {
        "count": 1
      }
    },
    {
      "type": "Feature",
      "geometry": {
        "type": "Point",
        "coordinates": [
          88.719,
          26.533
        ]
      },
      "properties": {
        "count": 2
      }
    },
    {
      "type": "Feature",
      "geometry": {
        "type": "Point",
        "coordinates": [
          88.7,
          26.536
        ]
      },
      "properties": {
        "count": 1
      }
    },
    {
      "type": "Feature",
      "geometry": {
        "type": "Point",
        "coordinates": [
          88.736,
          26.543
        ]
      },
      "properties": {
        "count": 2
      }
    },
    {
      "type": "Feature",
      "geometry": {
        "type": "Point",
        "coordinates": [
          88.728,
          26.546
        ]
      },
      "properties": {
        "count": 2
      }
    },
    {
      "type": "Feature",
      "geometry": {
        "type": "Point",
        "coordinates": [
          88.716,
          26.532
        ]
      },
      "properties": {
        "count": 3
      }
    },
    {
      "type": "Feature",
      "geometry": {
        "type": "Point",
        "coordinates": [
          88.73,
          26.542
        ]
      },
      "properties": {
        "count": 3
      }
    },
    {
      "type": "Feature",
      "geometry": {
        "type": "Point",
        "coordinates": [
          88.7,
          26.553
        ]
      },
      "properties": {
        "count": 3
      }
    },
    {
      "type": "Feature",
      "geometry": {
        "type": "Point",
        "coordinates": [
          88.727,
          26.551
        ]
      },
      "properties": {
        "count": 1
      }
    },
    {
      "type": "Feature",
      "geometry": {
        "type": "Point",
        "coordinates": [
          88.729,
          26.542
        ]
      },
      "properties": {
        "count": 4
      }
    },
    {
      "type": "Feature",
      "geometry": {
        "type": "Point",
        "coordinates": [
          88.712,
          26.532
        ]
      },
      "properties": {
        "count": 1
      }
    },
    {
      "type": "Feature",
      "geometry": {
        "type": "Point",
        "coordinates": [
          88.715,
          26.534
        ]
      },
      "properties": {
        "count": 3
      }
    },
    {
      "type": "Feature",
      "geometry": {
        "type": "Point",
        "coordinates": [
          88.711,
          26.535
        ]
      },
      "properties": {
        "count": 2
      }
    },
    {
      "type": "Feature",
      "geometry": {
        "type": "Point",
        "coordinates": [
          88.728,
          26.54
        ]
      },
      "properties": {
        "count": 2
      }
    },
    {
      "type": "Feature",
      "geometry": {
        "type": "Point",
        "coordinates": [
          88.701,
          26.551
        ]
      },
      "properties": {
        "count": 1
      }
    },
    {
      "type": "Feature",
      "geometry": {
        "type": "Point",
        "coordinates": [
          88.706,
          26.529
        ]
      },
      "properties": {
        "count": 1
      }
    },
    {
      "type": "Feature",
      "geometry": {
        "type": "Point",
        "coordinates": [
          88.699,
          26.544
        ]
      },
      "properties": {
        "count": 1
      }
    },
    {
      "type": "Feature",
      "geometry": {
        "type": "Point",
        "coordinates": [
          88.698,
          26.536
        ]
      },
      "properties": {
        "count": 2
      }
    },
    {
      "type": "Feature",
      "geometry": {
        "type": "Point",
        "coordinates": [
          88.696,
          26.548
        ]
      },
      "properties": {
        "count": 2
      }
    },
    {
      "type": "Feature",
      "geometry": {
        "type": "Point",
        "coordinates": [
          88.724,
          26.548
        ]
      },
      "properties": {
        "count": 2
      }
    },
    {
      "type": "Feature",
      "geometry": {
        "type": "Point",
        "coordinates": [
          88.717,
          26.557
        ]
      },
      "properties": {
        "count": 1
      }
    },
    {
      "type": "Feature",
      "geometry": {
        "type": "Point",
        "coordinates": [
          88.707,
          26.527
        ]
      },
      "properties": {
        "count": 1
      }
    },
    {
      "type": "Feature",
      "geometry": {
        "type": "Point",
        "coordinates": [
          88.732,
          26.545
        ]
      },
      "properties": {
        "count": 1
      }
    },
    {
      "type": "Feature",
      "geometry": {
        "type": "Point",
        "coordinates": [
          88.695,
          26.534
        ]
      },
      "properties": {
        "count": 1
      }
    },
    {
      "type": "Feature",
      "geometry": {
        "type": "Point",
        "coordinates": [
          88.693,
          26.536
        ]
      },
      "properties": {
        "count": 2
      }
    },
    {
      "type": "Feature",
      "geometry": {
        "type": "Point",
        "coordinates": [
          88.705,
          26.551
        ]
      },
      "properties": {
        "count": 3
      }
    },
    {
      "type": "Feature",
      "geometry": {
        "type": "Point",
        "coordinates": [
          88.716,
          26.546
        ]
      },
      "properties": {
        "count": 1
      }
    },
    {
      "type": "Feature",
      "geometry": {
        "type": "Point",
        "coordinates": [
          88.711,
          26.549
        ]
      },
      "properties": {
        "count": 3
      }
    },
    {
      "type": "Feature",
      "geometry": {
        "type": "Point",
        "coordinates": [
          88.718,
          26.543
        ]
      },
      "properties": {
        "count": 1
      }
    },
    {
      "type": "Feature",
      "geometry": {
        "type": "Point",
        "coordinates": [
          88.72,
          26.55
        ]
      },
      "properties": {
        "count": 1
      }
    },
    {
      "type": "Feature",
      "geometry": {
        "type": "Point",
        "coordinates": [
          88.717,
          26.554
        ]
      },
      "properties": {
        "count": 1
      }
    },
    {
      "type": "Feature",
      "geometry": {
        "type": "Point",
        "coordinates": [
          88.708,
          26.532
        ]
      },
      "properties": {
        "count": 2
      }
    },
    {
      "type": "Feature",
      "geometry": {
        "type": "Point",
        "coordinates": [
          88.704,
          26.55
        ]
      },
      "properties": {
        "count": 2
      }
    },
    {
      "type": "Feature",
      "geometry": {
        "type": "Point",
        "coordinates": [
          88.727,
          26.546
        ]
      },
      "properties": {
        "count": 1
      }
    },
    {
      "type": "Feature",
      "geometry": {
        "type": "Point",
        "coordinates": [
          88.73,
          26.545
        ]
      },
      "properties": {
        "count": 1
      }
    },
    {
      "type": "Feature",
      "geometry": {
        "type": "Point",
        "coordinates": [
          88.722,
          26.545
        ]
      },
      "properties": {
        "count": 1
      }
    },
    {
      "type": "Feature",
      "geometry": {
        "type": "Point",
        "coordinates": [
          88.696,
          26.535
        ]
      },
      "properties": {
        "count": 1
      }
    },
    {
      "type": "Feature",
      "geometry": {
        "type": "Point",
        "coordinates": [
          88.735,
          26.543
        ]
      },
      "properties": {
        "count": 2
      }
    },
    {
      "type": "Feature",
      "geometry": {
        "type": "Point",
        "coordinates": [
          88.705,
          26.55
        ]
      },
      "properties": {
        "count": 3
      }
    },
    {
      "type": "Feature",
      "geometry": {
        "type": "Point",
        "coordinates": [
          88.718,
          26.534
        ]
      },
      "properties": {
        "count": 2
      }
    },
    {
      "type": "Feature",
      "geometry": {
        "type": "Point",
        "coordinates": [
          88.715,
          26.557
        ]
      },
      "properties": {
        "count": 1
      }
    },
    {
      "type": "Feature",
      "geometry": {
        "type": "Point",
        "coordinates": [
          88.712,
          26.549
        ]
      },
      "properties": {
        "count": 2
      }
    },
    {
      "type": "Feature",
      "geometry": {
        "type": "Point",
        "coordinates": [
          88.699,
          26.539
        ]
      },
      "properties": {
        "count": 1
      }
    },
    {
      "type": "Feature",
      "geometry": {
        "type": "Point",
        "coordinates": [
          88.708,
          26.547
        ]
      },
      "properties": {
        "count": 1
      }
    },
    {
      "type": "Feature",
      "geometry": {
        "type": "Point",
        "coordinates": [
          88.73,
          26.54
        ]
      },
      "properties": {
        "count": 1
      }
    },
    {
      "type": "Feature",
      "geometry": {
        "type": "Point",
        "coordinates": [
          88.713,
          26.557
        ]
      },
      "properties": {
        "count": 2
      }
    },
    {
      "type": "Feature",
      "geometry": {
        "type": "Point",
        "coordinates": [
          88.733,
          26.54
        ]
      },
      "properties": {
        "count": 2
      }
    },
    {
      "type": "Feature",
      "geometry": {
        "type": "Point",
        "coordinates": [
          88.715,
          26.536
        ]
      },
      "properties": {
        "count": 1
      }
    },
    {
      "type": "Feature",
      "geometry": {
        "type": "Point",
        "coordinates": [
          88.71,
          26.532
        ]
      },
      "properties": {
        "count": 1
      }
    },
    {
      "type": "Feature",
      "geometry": {
        "type": "Point",
        "coordinates": [
          88.718,
          26.549
        ]
      },
      "properties": {
        "count": 3
      }
    },
    {
      "type": "Feature",
      "geometry": {
        "type": "Point",
        "coordinates": [
          88.727,
          26.544
        ]
      },
      "properties": {
        "count": 1
      }
    },
    {
      "type": "Feature",
      "geometry": {
        "type": "Point",
        "coordinates": [
          88.733,
          26.548
        ]
      },
      "properties": {
        "count": 1
      }
    },
    {
      "type": "Feature",
      "geometry": {
        "type": "Point",
        "coordinates": [
          88.708,
          26.529
        ]
      },
      "properties": {
        "count": 1
      }
    },
    {
      "type": "Feature",
      "geometry": {
        "type": "Point",
        "coordinates": [
          88.731,
          26.538
        ]
      },
      "properties": {
        "count": 1
      }
    },
    {
      "type": "Feature",
      "geometry": {
        "type": "Point",
        "coordinates": [
          88.723,
          26.545
        ]
      },
      "properties": {
        "count": 1
      }
    },
    {
      "type": "Feature",
      "geometry": {
        "type": "Point",
        "coordinates": [
          88.7,
          26.541
        ]
      },
      "properties": {
        "count": 2
      }
    },
    {
      "type": "Feature",
      "geometry": {
        "type": "Point",
        "coordinates": [
          88.728,
          26.539
        ]
      },
      "properties": {
        "count": 1
      }
    },
    {
      "type": "Feature",
      "geometry": {
        "type": "Point",
        "coordinates": [
          88.715,
          26.55
        ]
      },
      "properties": {
        "count": 1
      }
    },
    {
      "type": "Feature",
      "geometry": {
        "type": "Point",
        "coordinates": [
          88.727,
          26.539
        ]
      },
      "properties": {
        "count": 1
      }
    },
    {
      "type": "Feature",
      "geometry": {
        "type": "Point",
        "coordinates": [
          88.726,
          26.535
        ]
      },
      "properties": {
        "count": 3
      }
    },
    {
      "type": "Feature",
      "geometry": {
        "type": "Point",
        "coordinates": [
          88.701,
          26.543
        ]
      },
      "properties": {
        "count": 1
      }
    },
    {
      "type": "Feature",
      "geometry": {
        "type": "Point",
        "coordinates": [
          88.722,
          26.546
        ]
      },
      "properties": {
        "count": 6
      }
    },
    {
      "type": "Feature",
      "geometry": {
        "type": "Point",
        "coordinates": [
          88.721,
          26.549
        ]
      },
      "properties": {
        "count": 3
      }
    },
    {
      "type": "Feature",
      "geometry": {
        "type": "Point",
        "coordinates": [
          88.697,
          26.546
        ]
      },
      "properties": {
        "count": 1
      }
    },
    {
      "type": "Feature",
      "geometry": {
        "type": "Point",
        "coordinates": [
          88.71,
          26.533
        ]
      },
      "properties": {
        "count": 2
      }
    },
    {
      "type": "Feature",
      "geometry": {
        "type": "Point",
        "coordinates": [
          88.724,
          26.538
        ]
      },
      "properties": {
        "count": 1
      }
    },
    {
      "type": "Feature",
      "geometry": {
        "type": "Point",
        "coordinates": [
          88.694,
          26.54
        ]
      },
      "properties": {
        "count": 3
      }
    },
    {
      "type": "Feature",
      "geometry": {
        "type": "Point",
        "coordinates": [
          88.719,
          26.546
        ]
      },
      "properties": {
        "count": 1
      }
    },
    {
      "type": "Feature",
      "geometry": {
        "type": "Point",
        "coordinates": [
          88.717,
          26.549
        ]
      },
      "properties": {
        "count": 5
      }
    },
    {
      "type": "Feature",
      "geometry": {
        "type": "Point",
        "coordinates": [
          88.715,
          26.549
        ]
      },
      "properties": {
        "count": 2
      }
    },
    {
      "type": "Feature",
      "geometry": {
        "type": "Point",
        "coordinates": [
          88.731,
          26.543
        ]
      },
      "properties": {
        "count": 2
      }
    },
    {
      "type": "Feature",
      "geometry": {
        "type": "Point",
        "coordinates": [
          88.726,
          26.541
        ]
      },
      "properties": {
        "count": 2
      }
    },
    {
      "type": "Feature",
      "geometry": {
        "type": "Point",
        "coordinates": [
          88.727,
          26.549
        ]
      },
      "properties": {
        "count": 1
      }
    },
    {
      "type": "Feature",
      "geometry": {
        "type": "Point",
        "coordinates": [
          88.704,
          26.532
        ]
      },
      "properties": {
        "count": 1
      }
    },
    {
      "type": "Feature",
      "geometry": {
        "type": "Point",
        "coordinates": [
          88.73,
          26.541
        ]
      },
      "properties": {
        "count": 3
      }
    },
    {
      "type": "Feature",
      "geometry": {
        "type": "Point",
        "coordinates": [
          88.724,
          26.539
        ]
      },
      "properties": {
        "count": 1
      }
    },
    {
      "type": "Feature",
      "geometry": {
        "type": "Point",
        "coordinates": [
          88.732,
          26.549
        ]
      },
      "properties": {
        "count": 1
      }
    },
    {
      "type": "Feature",
      "geometry": {
        "type": "Point",
        "coordinates": [
          88.723,
          26.547
        ]
      },
      "properties": {
        "count": 2
      }
    },
    {
      "type": "Feature",
      "geometry": {
        "type": "Point",
        "coordinates": [
          88.715,
          26.552
        ]
      },
      "properties": {
        "count": 2
      }
    },
    {
      "type": "Feature",
      "geometry": {
        "type": "Point",
        "coordinates": [
          88.704,
          26.529
        ]
      },
      "properties": {
        "count": 1
      }
    },
    {
      "type": "Feature",
      "geometry": {
        "type": "Point",
        "coordinates": [
          88.735,
          26.538
        ]
      },
      "properties": {
        "count": 2
      }
    },
    {
      "type": "Feature",
      "geometry": {
        "type": "Point",
        "coordinates": [
          88.709,
          26.554
        ]
      },
      "properties": {
        "count": 1
      }
    },
    {
      "type": "Feature",
      "geometry": {
        "type": "Point",
        "coordinates": [
          88.693,
          26.541
        ]
      },
      "properties": {
        "count": 1
      }
    },
    {
      "type": "Feature",
      "geometry": {
        "type": "Point",
        "coordinates": [
          88.7,
          26.54
        ]
      },
      "properties": {
        "count": 1
      }
    },
    {
      "type": "Feature",
      "geometry": {
        "type": "Point",
        "coordinates": [
          88.701,
          26.55
        ]
      },
      "properties": {
        "count": 1
      }
    },
    {
      "type": "Feature",
      "geometry": {
        "type": "Point",
        "coordinates": [
          88.698,
          26.543
        ]
      },
      "properties": {
        "count": 2
      }
    },
    {
      "type": "Feature",
      "geometry": {
        "type": "Point",
        "coordinates": [
          88.737,
          26.545
        ]
      },
      "properties": {
        "count": 1
      }
    },
    {
      "type": "Feature",
      "geometry": {
        "type": "Point",
        "coordinates": [
          88.708,
          26.53
        ]
      },
      "properties": {
        "count": 2
      }
    },
    {
      "type": "Feature",
      "geometry": {
        "type": "Point",
        "coordinates": [
          88.732,
          26.546
        ]
      },
      "properties": {
        "count": 1
      }
    },
    {
      "type": "Feature",
      "geometry": {
        "type": "Point",
        "coordinates": [
          88.724,
          26.546
        ]
      },
      "properties": {
        "count": 1
      }
    },
    {
      "type": "Feature",
      "geometry": {
        "type": "Point",
        "coordinates": [
          88.713,
          26.554
        ]
      },
      "properties": {
        "count": 1
      }
    },
    {
      "type": "Feature",
      "geometry": {
        "type": "Point",
        "coordinates": [
          88.718,
          26.539
        ]
      },
      "properties": {
        "count": 1
      }
    },
    {
      "type": "Feature",
      "geometry": {
        "type": "Point",
        "coordinates": [
          88.705,
          26.549
        ]
      },
      "properties": {
        "count": 1
      }
    },
    {
      "type": "Feature",
      "geometry": {
        "type": "Point",
        "coordinates": [
          88.698,
          26.535
        ]
      },
      "properties": {
        "count": 2
      }
    },
    {
      "type": "Feature",
      "geometry": {
        "type": "Point",
        "coordinates": [
          88.716,
          26.536
        ]
      },
      "properties": {
        "count": 1
      }
    },
    {
      "type": "Feature",
      "geometry": {
        "type": "Point",
        "coordinates": [
          88.705,
          26.527
        ]
      },
      "properties": {
        "count": 1
      }
    },
    {
      "type": "Feature",
      "geometry": {
        "type": "Point",
        "coordinates": [
          88.705,
          26.546
        ]
      },
      "properties": {
        "count": 2
      }
    },
    {
      "type": "Feature",
      "geometry": {
        "type": "Point",
        "coordinates": [
          88.725,
          26.534
        ]
      },
      "properties": {
        "count": 1
      }
    },
    {
      "type": "Feature",
      "geometry": {
        "type": "Point",
        "coordinates": [
          88.703,
          26.529
        ]
      },
      "properties": {
        "count": 1
      }
    },
    {
      "type": "Feature",
      "geometry": {
        "type": "Point",
        "coordinates": [
          88.731,
          26.542
        ]
      },
      "properties": {
        "count": 1
      }
    },
    {
      "type": "Feature",
      "geometry": {
        "type": "Point",
        "coordinates": [
          88.697,
          26.542
        ]
      },
      "properties": {
        "count": 1
      }
    },
    {
      "type": "Feature",
      "geometry": {
        "type": "Point",
        "coordinates": [
          88.725,
          26.548
        ]
      },
      "properties": {
        "count": 1
      }
    },
    {
      "type": "Feature",
      "geometry": {
        "type": "Point",
        "coordinates": [
          88.701,
          26.548
        ]
      },
      "properties": {
        "count": 3
      }
    },
    {
      "type": "Feature",
      "geometry": {
        "type": "Point",
        "coordinates": [
          88.714,
          26.548
        ]
      },
      "properties": {
        "count": 3
      }
    },
    {
      "type": "Feature",
      "geometry": {
        "type": "Point",
        "coordinates": [
          88.717,
          26.533
        ]
      },
      "properties": {
        "count": 2
      }
    },
    {
      "type": "Feature",
      "geometry": {
        "type": "Point",
        "coordinates": [
          88.727,
          26.538
        ]
      },
      "properties": {
        "count": 3
      }
    },
    {
      "type": "Feature",
      "geometry": {
        "type": "Point",
        "coordinates": [
          88.695,
          26.542
        ]
      },
      "properties": {
        "count": 1
      }
    },
    {
      "type": "Feature",
      "geometry": {
        "type": "Point",
        "coordinates": [
          88.722,
          26.536
        ]
      },
      "properties": {
        "count": 1
      }
    },
    {
      "type": "Feature",
      "geometry": {
        "type": "Point",
        "coordinates": [
          88.711,
          26.552
        ]
      },
      "properties": {
        "count": 1
      }
    },
    {
      "type": "Feature",
      "geometry": {
        "type": "Point",
        "coordinates": [
          88.706,
          26.547
        ]
      },
      "properties": {
        "count": 3
      }
    },
    {
      "type": "Feature",
      "geometry": {
        "type": "Point",
        "coordinates": [
          88.691,
          26.54
        ]
      },
      "properties": {
        "count": 1
      }
    },
    {
      "type": "Feature",
      "geometry": {
        "type": "Point",
        "coordinates": [
          88.723,
          26.535
        ]
      },
      "properties": {
        "count": 1
      }
    },
    {
      "type": "Feature",
      "geometry": {
        "type": "Point",
        "coordinates": [
          88.723,
          26.539
        ]
      },
      "properties": {
        "count": 1
      }
    },
    {
      "type": "Feature",
      "geometry": {
        "type": "Point",
        "coordinates": [
          88.724,
          26.537
        ]
      },
      "properties": {
        "count": 2
      }
    },
    {
      "type": "Feature",
      "geometry": {
        "type": "Point",
        "coordinates": [
          88.708,
          26.549
        ]
      },
      "properties": {
        "count": 3
      }
    },
    {
      "type": "Feature",
      "geometry": {
        "type": "Point",
        "coordinates": [
          88.728,
          26.541
        ]
      },
      "properties": {
        "count": 1
      }
    },
    {
      "type": "Feature",
      "geometry": {
        "type": "Point",
        "coordinates": [
          88.704,
          26.545
        ]
      },
      "properties": {
        "count": 2
      }
    },
    {
      "type": "Feature",
      "geometry": {
        "type": "Point",
        "coordinates": [
          88.736,
          26.544
        ]
      },
      "properties": {
        "count": 1
      }
    },
    {
      "type": "Feature",
      "geometry": {
        "type": "Point",
        "coordinates": [
          88.706,
          26.555
        ]
      },
      "properties": {
        "count": 1
      }
    },
    {
      "type": "Feature",
      "geometry": {
        "type": "Point",
        "coordinates": [
          88.737,
          26.541
        ]
      },
      "properties": {
        "count": 1
      }
    },
    {
      "type": "Feature",
      "geometry": {
        "type": "Point",
        "coordinates": [
          88.728,
          26.544
        ]
      },
      "properties": {
        "count": 1
      }
    },
    {
      "type": "Feature",
      "geometry": {
        "type": "Point",
        "coordinates": [
          88.697,
          26.548
        ]
      },
      "properties": {
        "count": 1
      }
    },
    {
      "type": "Feature",
      "geometry": {
        "type": "Point",
        "coordinates": [
          88.707,
          26.548
        ]
      },
      "properties": {
        "count": 1
      }
    },
    {
      "type": "Feature",
      "geometry": {
        "type": "Point",
        "coordinates": [
          88.724,
          26.533
        ]
      },
      "properties": {
        "count": 1
      }
    },
    {
      "type": "Feature",
      "geometry": {
        "type": "Point",
        "coordinates": [
          88.735,
          26.537
        ]
      },
      "properties": {
        "count": 1
      }
    },
    {
      "type": "Feature",
      "geometry": {
        "type": "Point",
        "coordinates": [
          88.725,
          26.546
        ]
      },
      "properties": {
        "count": 1
      }
    },
    {
      "type": "Feature",
      "geometry": {
        "type": "Point",
        "coordinates": [
          88.709,
          26.553
        ]
      },
      "properties": {
        "count": 3
      }
    },
    {
      "type": "Feature",
      "geometry": {
        "type": "Point",
        "coordinates": [
          88.714,
          26.547
        ]
      },
      "properties": {
        "count": 1
      }
    },
    {
      "type": "Feature",
      "geometry": {
        "type": "Point",
        "coordinates": [
          88.696,
          26.538
        ]
      },
      "properties": {
        "count": 1
      }
    },
    {
      "type": "Feature",
      "geometry": {
        "type": "Point",
        "coordinates": [
          88.704,
          26.555
        ]
      },
      "properties": {
        "count": 1
      }
    },
    {
      "type": "Feature",
      "geometry": {
        "type": "Point",
        "coordinates": [
          88.702,
          26.53
        ]
      },
      "properties": {
        "count": 1
      }
    },
    {
      "type": "Feature",
      "geometry": {
        "type": "Point",
        "coordinates": [
          88.695,
          26.54
        ]
      },
      "properties": {
        "count": 3
      }
    },
    {
      "type": "Feature",
      "geometry": {
        "type": "Point",
        "coordinates": [
          88.728,
          26.549
        ]
      },
      "properties": {
        "count": 2
      }
    },
    {
      "type": "Feature",
      "geometry": {
        "type": "Point",
        "coordinates": [
          88.712,
          26.552
        ]
      },
      "properties": {
        "count": 2
      }
    },
    {
      "type": "Feature",
      "geometry": {
        "type": "Point",
        "coordinates": [
          88.704,
          26.549
        ]
      },
      "properties": {
        "count": 1
      }
    },
    {
      "type": "Feature",
      "geometry": {
        "type": "Point",
        "coordinates": [
          88.737,
          26.537
        ]
      },
      "properties": {
        "count": 1
      }
    },
    {
      "type": "Feature",
      "geometry": {
        "type": "Point",
        "coordinates": [
          88.713,
          26.536
        ]
      },
      "properties": {
        "count": 2
      }
    },
    {
      "type": "Feature",
      "geometry": {
        "type": "Point",
        "coordinates": [
          88.72,
          26.537
        ]
      },
      "properties": {
        "count": 1
      }
    },
    {
      "type": "Feature",
      "geometry": {
        "type": "Point",
        "coordinates": [
          88.725,
          26.543
        ]
      },
      "properties": {
        "count": 2
      }
    },
    {
      "type": "Feature",
      "geometry": {
        "type": "Point",
        "coordinates": [
          88.722,
          26.556
        ]
      },
      "properties": {
        "count": 1
      }
    },
    {
      "type": "Feature",
      "geometry": {
        "type": "Point",
        "coordinates": [
          88.711,
          26.55
        ]
      },
      "properties": {
        "count": 1
      }
    },
    {
      "type": "Feature",
      "geometry": {
        "type": "Point",
        "coordinates": [
          88.713,
          26.533
        ]
      },
      "properties": {
        "count": 3
      }
    },
    {
      "type": "Feature",
      "geometry": {
        "type": "Point",
        "coordinates": [
          88.718,
          26.548
        ]
      },
      "properties": {
        "count": 1
      }
    },
    {
      "type": "Feature",
      "geometry": {
        "type": "Point",
        "coordinates": [
          88.708,
          26.536
        ]
      },
      "properties": {
        "count": 1
      }
    },
    {
      "type": "Feature",
      "geometry": {
        "type": "Point",
        "coordinates": [
          88.725,
          26.536
        ]
      },
      "properties": {
        "count": 2
      }
    },
    {
      "type": "Feature",
      "geometry": {
        "type": "Point",
        "coordinates": [
          88.719,
          26.545
        ]
      },
      "properties": {
        "count": 1
      }
    },
    {
      "type": "Feature",
      "geometry": {
        "type": "Point",
        "coordinates": [
          88.706,
          26.533
        ]
      },
      "properties": {
        "count": 1
      }
    },
    {
      "type": "Feature",
      "geometry": {
        "type": "Point",
        "coordinates": [
          88.713,
          26.537
        ]
      },
      "properties": {
        "count": 2
      }
    },
    {
      "type": "Feature",
      "geometry": {
        "type": "Point",
        "coordinates": [
          88.717,
          26.546
        ]
      },
      "properties": {
        "count": 3
      }
    },
    {
      "type": "Feature",
      "geometry": {
        "type": "Point",
        "coordinates": [
          88.716,
          26.544
        ]
      },
      "properties": {
        "count": 1
      }
    },
    {
      "type": "Feature",
      "geometry": {
        "type": "Point",
        "coordinates": [
          88.721,
          26.557
        ]
      },
      "properties": {
        "count": 1
      }
    },
    {
      "type": "Feature",
      "geometry": {
        "type": "Point",
        "coordinates": [
          88.726,
          26.54
        ]
      },
      "properties": {
        "count": 2
      }
    },
    {
      "type": "Feature",
      "geometry": {
        "type": "Point",
        "coordinates": [
          88.723,
          26.537
        ]
      },
      "properties": {
        "count": 2
      }
    },
    {
      "type": "Feature",
      "geometry": {
        "type": "Point",
        "coordinates": [
          88.709,
          26.552
        ]
      },
      "properties": {
        "count": 1
      }
    },
    {
      "type": "Feature",
      "geometry": {
        "type": "Point",
        "coordinates": [
          88.696,
          26.54
        ]
      },
      "properties": {
        "count": 1
      }
    },
    {
      "type": "Feature",
      "geometry": {
        "type": "Point",
        "coordinates": [
          88.728,
          26.537
        ]
      },
      "properties": {
        "count": 2
      }
    },
    {
      "type": "Feature",
      "geometry": {
        "type": "Point",
        "coordinates": [
          88.694,
          26.541
        ]
      },
      "properties": {
        "count": 2
      }
    },
    {
      "type": "Feature",
      "geometry": {
        "type": "Point",
        "coordinates": [
          88.73,
          26.544
        ]
      },
      "properties": {
        "count": 1
      }
    },
    {
      "type": "Feature",
      "geometry": {
        "type": "Point",
        "coordinates": [
          88.716,
          26.547
        ]
      },
      "properties": {
        "count": 1
      }
    },
    {
      "type": "Feature",
      "geometry": {
        "type": "Point",
        "coordinates": [
          88.719,
          26.56
        ]
      },
      "properties": {
        "count": 1
      }
    },
    {
      "type": "Feature",
      "geometry": {
        "type": "Point",
        "coordinates": [
          88.698,
          26.537
        ]
      },
      "properties": {
        "count": 2
      }
    },
    {
      "type": "Feature",
      "geometry": {
        "type": "Point",
        "coordinates": [
          88.71,
          26.55
        ]
      },
      "properties": {
        "count": 1
      }
    },
    {
      "type": "Feature",
      "geometry": {
        "type": "Point",
        "coordinates": [
          88.731,
          26.536
        ]
      },
      "properties": {
        "count": 1
      }
    },
    {
      "type": "Feature",
      "geometry": {
        "type": "Point",
        "coordinates": [
          88.699,
          26.546
        ]
      },
      "properties": {
        "count": 1
      }
    },
    {
      "type": "Feature",
      "geometry": {
        "type": "Point",
        "coordinates": [
          88.699,
          26.548
        ]
      },
      "properties": {
        "count": 1
      }
    },
    {
      "type": "Feature",
      "geometry": {
        "type": "Point",
        "coordinates": [
          88.72,
          26.536
        ]
      },
      "properties": {
        "count": 1
      }
    },
    {
      "type": "Feature",
      "geometry": {
        "type": "Point",
        "coordinates": [
          88.71,
          26.551
        ]
      },
      "properties": {
        "count": 1
      }
    },
    {
      "type": "Feature",
      "geometry": {
        "type": "Point",
        "coordinates": [
          88.723,
          26.546
        ]
      },
      "properties": {
        "count": 2
      }
    },
    {
      "type": "Feature",
      "geometry": {
        "type": "Point",
        "coordinates": [
          88.712,
          26.55
        ]
      },
      "properties": {
        "count": 1
      }
    },
    {
      "type": "Feature",
      "geometry": {
        "type": "Point",
        "coordinates": [
          88.717,
          26.539
        ]
      },
      "properties": {
        "count": 1
      }
    },
    {
      "type": "Feature",
      "geometry": {
        "type": "Point",
        "coordinates": [
          88.696,
          26.536
        ]
      },
      "properties": {
        "count": 1
      }
    },
    {
      "type": "Feature",
      "geometry": {
        "type": "Point",
        "coordinates": [
          88.725,
          26.542
        ]
      },
      "properties": {
        "count": 2
      }
    },
    {
      "type": "Feature",
      "geometry": {
        "type": "Point",
        "coordinates": [
          88.721,
          26.544
        ]
      },
      "properties": {
        "count": 1
      }
    },
    {
      "type": "Feature",
      "geometry": {
        "type": "Point",
        "coordinates": [
          88.739,
          26.549
        ]
      },
      "properties": {
        "count": 1
      }
    },
    {
      "type": "Feature",
      "geometry": {
        "type": "Point",
        "coordinates": [
          88.696,
          26.541
        ]
      },
      "properties": {
        "count": 3
      }
    },
    {
      "type": "Feature",
      "geometry": {
        "type": "Point",
        "coordinates": [
          88.71,
          26.552
        ]
      },
      "properties": {
        "count": 2
      }
    },
    {
      "type": "Feature",
      "geometry": {
        "type": "Point",
        "coordinates": [
          88.71,
          26.548
        ]
      },
      "properties": {
        "count": 2
      }
    },
    {
      "type": "Feature",
      "geometry": {
        "type": "Point",
        "coordinates": [
          88.713,
          26.546
        ]
      },
      "properties": {
        "count": 2
      }
    },
    {
      "type": "Feature",
      "geometry": {
        "type": "Point",
        "coordinates": [
          88.738,
          26.546
        ]
      },
      "properties": {
        "count": 2
      }
    },
    {
      "type": "Feature",
      "geometry": {
        "type": "Point",
        "coordinates": [
          88.741,
          26.55
        ]
      },
      "properties": {
        "count": 1
      }
    },
    {
      "type": "Feature",
      "geometry": {
        "type": "Point",
        "coordinates": [
          88.72,
          26.533
        ]
      },
      "properties": {
        "count": 3
      }
    },
    {
      "type": "Feature",
      "geometry": {
        "type": "Point",
        "coordinates": [
          88.72,
          26.558
        ]
      },
      "properties": {
        "count": 2
      }
    },
    {
      "type": "Feature",
      "geometry": {
        "type": "Point",
        "coordinates": [
          88.699,
          26.536
        ]
      },
      "properties": {
        "count": 2
      }
    },
    {
      "type": "Feature",
      "geometry": {
        "type": "Point",
        "coordinates": [
          88.697,
          26.534
        ]
      },
      "properties": {
        "count": 1
      }
    },
    {
      "type": "Feature",
      "geometry": {
        "type": "Point",
        "coordinates": [
          88.733,
          26.542
        ]
      },
      "properties": {
        "count": 2
      }
    },
    {
      "type": "Feature",
      "geometry": {
        "type": "Point",
        "coordinates": [
          88.713,
          26.548
        ]
      },
      "properties": {
        "count": 1
      }
    },
    {
      "type": "Feature",
      "geometry": {
        "type": "Point",
        "coordinates": [
          88.713,
          26.534
        ]
      },
      "properties": {
        "count": 1
      }
    },
    {
      "type": "Feature",
      "geometry": {
        "type": "Point",
        "coordinates": [
          88.7,
          26.539
        ]
      },
      "properties": {
        "count": 1
      }
    },
    {
      "type": "Feature",
      "geometry": {
        "type": "Point",
        "coordinates": [
          88.699,
          26.53
        ]
      },
      "properties": {
        "count": 2
      }
    },
    {
      "type": "Feature",
      "geometry": {
        "type": "Point",
        "coordinates": [
          88.726,
          26.547
        ]
      },
      "properties": {
        "count": 1
      }
    },
    {
      "type": "Feature",
      "geometry": {
        "type": "Point",
        "coordinates": [
          88.734,
          26.541
        ]
      },
      "properties": {
        "count": 1
      }
    },
    {
      "type": "Feature",
      "geometry": {
        "type": "Point",
        "coordinates": [
          88.723,
          26.543
        ]
      },
      "properties": {
        "count": 1
      }
    },
    {
      "type": "Feature",
      "geometry": {
        "type": "Point",
        "coordinates": [
          88.729,
          26.539
        ]
      },
      "properties": {
        "count": 2
      }
    },
    {
      "type": "Feature",
      "geometry": {
        "type": "Point",
        "coordinates": [
          88.71,
          26.536
        ]
      },
      "properties": {
        "count": 1
      }
    },
    {
      "type": "Feature",
      "geometry": {
        "type": "Point",
        "coordinates": [
          88.71,
          26.549
        ]
      },
      "properties": {
        "count": 1
      }
    },
    {
      "type": "Feature",
      "geometry": {
        "type": "Point",
        "coordinates": [
          88.712,
          26.556
        ]
      },
      "properties": {
        "count": 1
      }
    },
    {
      "type": "Feature",
      "geometry": {
        "type": "Point",
        "coordinates": [
          88.718,
          26.537
        ]
      },
      "properties": {
        "count": 1
      }
    },
    {
      "type": "Feature",
      "geometry": {
        "type": "Point",
        "coordinates": [
          88.694,
          26.538
        ]
      },
      "properties": {
        "count": 1
      }
    },
    {
      "type": "Feature",
      "geometry": {
        "type": "Point",
        "coordinates": [
          88.722,
          26.535
        ]
      },
      "properties": {
        "count": 1
      }
    },
    {
      "type": "Feature",
      "geometry": {
        "type": "Point",
        "coordinates": [
          88.703,
          26.545
        ]
      },
      "properties": {
        "count": 1
      }
    },
    {
      "type": "Feature",
      "geometry": {
        "type": "Point",
        "coordinates": [
          88.704,
          26.551
        ]
      },
      "properties": {
        "count": 1
      }
    },
    {
      "type": "Feature",
      "geometry": {
        "type": "Point",
        "coordinates": [
          88.716,
          26.537
        ]
      },
      "properties": {
        "count": 1
      }
    },
    {
      "type": "Feature",
      "geometry": {
        "type": "Point",
        "coordinates": [
          88.692,
          26.539
        ]
      },
      "properties": {
        "count": 1
      }
    },
    {
      "type": "Feature",
      "geometry": {
        "type": "Point",
        "coordinates": [
          88.701,
          26.544
        ]
      },
      "properties": {
        "count": 1
      }
    },
    {
      "type": "Feature",
      "geometry": {
        "type": "Point",
        "coordinates": [
          88.698,
          26.541
        ]
      },
      "properties": {
        "count": 2
      }
    },
    {
      "type": "Feature",
      "geometry": {
        "type": "Point",
        "coordinates": [
          88.701,
          26.53
        ]
      },
      "properties": {
        "count": 1
      }
    },
    {
      "type": "Feature",
      "geometry": {
        "type": "Point",
        "coordinates": [
          88.714,
          26.555
        ]
      },
      "properties": {
        "count": 2
      }
    },
    {
      "type": "Feature",
      "geometry": {
        "type": "Point",
        "coordinates": [
          88.721,
          26.536
        ]
      },
      "properties": {
        "count": 3
      }
    },
    {
      "type": "Feature",
      "geometry": {
        "type": "Point",
        "coordinates": [
          88.736,
          26.545
        ]
      },
      "properties": {
        "count": 1
      }
    },
    {
      "type": "Feature",
      "geometry": {
        "type": "Point",
        "coordinates": [
          88.729,
          26.545
        ]
      },
      "properties": {
        "count": 2
      }
    },
    {
      "type": "Feature",
      "geometry": {
        "type": "Point",
        "coordinates": [
          88.721,
          26.554
        ]
      },
      "properties": {
        "count": 1
      }
    },
    {
      "type": "Feature",
      "geometry": {
        "type": "Point",
        "coordinates": [
          88.72,
          26.542
        ]
      },
      "properties": {
        "count": 2
      }
    },
    {
      "type": "Feature",
      "geometry": {
        "type": "Point",
        "coordinates": [
          88.698,
          26.54
        ]
      },
      "properties": {
        "count": 1
      }
    },
    {
      "type": "Feature",
      "geometry": {
        "type": "Point",
        "coordinates": [
          88.729,
          26.541
        ]
      },
      "properties": {
        "count": 1
      }
    },
    {
      "type": "Feature",
      "geometry": {
        "type": "Point",
        "coordinates": [
          88.731,
          26.541
        ]
      },
      "properties": {
        "count": 1
      }
    },
    {
      "type": "Feature",
      "geometry": {
        "type": "Point",
        "coordinates": [
          88.722,
          26.534
        ]
      },
      "properties": {
        "count": 1
      }
    },
    {
      "type": "Feature",
      "geometry": {
        "type": "Point",
        "coordinates": [
          88.697,
          26.536
        ]
      },
      "properties": {
        "count": 1
      }
    },
    {
      "type": "Feature",
      "geometry": {
        "type": "Point",
        "coordinates": [
          88.721,
          26.539
        ]
      },
      "properties": {
        "count": 1
      }
    },
    {
      "type": "Feature",
      "geometry": {
        "type": "Point",
        "coordinates": [
          88.699,
          26.542
        ]
      },
      "properties": {
        "count": 1
      }
    },
    {
      "type": "Feature",
      "geometry": {
        "type": "Point",
        "coordinates": [
          88.734,
          26.545
        ]
      },
      "properties": {
        "count": 1
      }
    },
    {
      "type": "Feature",
      "geometry": {
        "type": "Point",
        "coordinates": [
          88.733,
          26.55
        ]
      },
      "properties": {
        "count": 2
      }
    },
    {
      "type": "Feature",
      "geometry": {
        "type": "Point",
        "coordinates": [
          88.73,
          26.547
        ]
      },
      "properties": {
        "count": 1
      }
    },
    {
      "type": "Feature",
      "geometry": {
        "type": "Point",
        "coordinates": [
          88.695,
          26.541
        ]
      },
      "properties": {
        "count": 1
      }
    },
    {
      "type": "Feature",
      "geometry": {
        "type": "Point",
        "coordinates": [
          88.727,
          26.545
        ]
      },
      "properties": {
        "count": 1
      }
    },
    {
      "type": "Feature",
      "geometry": {
        "type": "Point",
        "coordinates": [
          88.726,
          26.534
        ]
      },
      "properties": {
        "count": 1
      }
    },
    {
      "type": "Feature",
      "geometry": {
        "type": "Point",
        "coordinates": [
          88.696,
          26.539
        ]
      },
      "properties": {
        "count": 1
      }
    },
    {
      "type": "Feature",
      "geometry": {
        "type": "Point",
        "coordinates": [
          88.7,
          26.544
        ]
      },
      "properties": {
        "count": 1
      }
    },
    {
      "type": "Feature",
      "geometry": {
        "type": "Point",
        "coordinates": [
          88.725,
          26.545
        ]
      },
      "properties": {
        "count": 1
      }
    },
    {
      "type": "Feature",
      "geometry": {
        "type": "Point",
        "coordinates": [
          88.718,
          26.536
        ]
      },
      "properties": {
        "count": 2
      }
    },
    {
      "type": "Feature",
      "geometry": {
        "type": "Point",
        "coordinates": [
          88.691,
          26.539
        ]
      },
      "properties": {
        "count": 1
      }
    },
    {
      "type": "Feature",
      "geometry": {
        "type": "Point",
        "coordinates": [
          88.698,
          26.552
        ]
      },
      "properties": {
        "count": 1
      }
    },
    {
      "type": "Feature",
      "geometry": {
        "type": "Point",
        "coordinates": [
          88.71,
          26.53
        ]
      },
      "properties": {
        "count": 1
      }
    },
    {
      "type": "Feature",
      "geometry": {
        "type": "Point",
        "coordinates": [
          88.726,
          26.538
        ]
      },
      "properties": {
        "count": 2
      }
    },
    {
      "type": "Feature",
      "geometry": {
        "type": "Point",
        "coordinates": [
          88.726,
          26.55
        ]
      },
      "properties": {
        "count": 1
      }
    },
    {
      "type": "Feature",
      "geometry": {
        "type": "Point",
        "coordinates": [
          88.703,
          26.547
        ]
      },
      "properties": {
        "count": 2
      }
    },
    {
      "type": "Feature",
      "geometry": {
        "type": "Point",
        "coordinates": [
          88.735,
          26.536
        ]
      },
      "properties": {
        "count": 1
      }
    },
    {
      "type": "Feature",
      "geometry": {
        "type": "Point",
        "coordinates": [
          88.729,
          26.543
        ]
      },
      "properties": {
        "count": 1
      }
    },
    {
      "type": "Feature",
      "geometry": {
        "type": "Point",
        "coordinates": [
          88.699,
          26.528
        ]
      },
      "properties": {
        "count": 1
      }
    },
    {
      "type": "Feature",
      "geometry": {
        "type": "Point",
        "coordinates": [
          88.71,
          26.529
        ]
      },
      "properties": {
        "count": 1
      }
    },
    {
      "type": "Feature",
      "geometry": {
        "type": "Point",
        "coordinates": [
          88.701,
          26.529
        ]
      },
      "properties": {
        "count": 1
      }
    },
    {
      "type": "Feature",
      "geometry": {
        "type": "Point",
        "coordinates": [
          88.719,
          26.54
        ]
      },
      "properties": {
        "count": 1
      }
    },
    {
      "type": "Feature",
      "geometry": {
        "type": "Point",
        "coordinates": [
          88.715,
          26.533
        ]
      },
      "properties": {
        "count": 1
      }
    },
    {
      "type": "Feature",
      "geometry": {
        "type": "Point",
        "coordinates": [
          88.721,
          26.534
        ]
      },
      "properties": {
        "count": 1
      }
    },
    {
      "type": "Feature",
      "geometry": {
        "type": "Point",
        "coordinates": [
          88.71,
          26.534
        ]
      },
      "properties": {
        "count": 1
      }
    },
    {
      "type": "Feature",
      "geometry": {
        "type": "Point",
        "coordinates": [
          88.712,
          26.553
        ]
      },
      "properties": {
        "count": 1
      }
    },
    {
      "type": "Feature",
      "geometry": {
        "type": "Point",
        "coordinates": [
          88.693,
          26.538
        ]
      },
      "properties": {
        "count": 1
      }
    },
    {
      "type": "Feature",
      "geometry": {
        "type": "Point",
        "coordinates": [
          88.719,
          26.536
        ]
      },
      "properties": {
        "count": 1
      }
    },
    {
      "type": "Feature",
      "geometry": {
        "type": "Point",
        "coordinates": [
          88.701,
          26.549
        ]
      },
      "properties": {
        "count": 1
      }
    },
    {
      "type": "Feature",
      "geometry": {
        "type": "Point",
        "coordinates": [
          88.733,
          26.539
        ]
      },
      "properties": {
        "count": 1
      }
    },
    {
      "type": "Feature",
      "geometry": {
        "type": "Point",
        "coordinates": [
          88.729,
          26.544
        ]
      },
      "properties": {
        "count": 1
      }
    },
    {
      "type": "Feature",
      "geometry": {
        "type": "Point",
        "coordinates": [
          88.719,
          26.549
        ]
      },
      "properties": {
        "count": 1
      }
    },
    {
      "type": "Feature",
      "geometry": {
        "type": "Point",
        "coordinates": [
          88.694,
          26.539
        ]
      },
      "properties": {
        "count": 1
      }
    },
    {
      "type": "Feature",
      "geometry": {
        "type": "Point",
        "coordinates": [
          88.727,
          26.55
        ]
      },
      "properties": {
        "count": 2
      }
    },
    {
      "type": "Feature",
      "geometry": {
        "type": "Point",
        "coordinates": [
          88.704,
          26.535
        ]
      },
      "properties": {
        "count": 1
      }
    },
    {
      "type": "Feature",
      "geometry": {
        "type": "Point",
        "coordinates": [
          88.698,
          26.533
        ]
      },
      "properties": {
        "count": 1
      }
    },
    {
      "type": "Feature",
      "geometry": {
        "type": "Point",
        "coordinates": [
          88.732,
          26.543
        ]
      },
      "properties": {
        "count": 1
      }
    },
    {
      "type": "Feature",
      "geometry": {
        "type": "Point",
        "coordinates": [
          88.728,
          26.542
        ]
      },
      "properties": {
        "count": 1
      }
    },
    {
      "type": "Feature",
      "geometry": {
        "type": "Point",
        "coordinates": [
          88.7,
          26.547
        ]
      },
      "properties": {
        "count": 1
      }
    },
    {
      "type": "Feature",
      "geometry": {
        "type": "Point",
        "coordinates": [
          88.726,
          26.545
        ]
      },
      "properties": {
        "count": 2
      }
    },
    {
      "type": "Feature",
      "geometry": {
        "type": "Point",
        "coordinates": [
          88.719,
          26.537
        ]
      },
      "properties": {
        "count": 1
      }
    },
    {
      "type": "Feature",
      "geometry": {
        "type": "Point",
        "coordinates": [
          88.697,
          26.533
        ]
      },
      "properties": {
        "count": 1
      }
    },
    {
      "type": "Feature",
      "geometry": {
        "type": "Point",
        "coordinates": [
          88.73,
          26.537
        ]
      },
      "properties": {
        "count": 1
      }
    },
    {
      "type": "Feature",
      "geometry": {
        "type": "Point",
        "coordinates": [
          88.725,
          26.547
        ]
      },
      "properties": {
        "count": 1
      }
    },
    {
      "type": "Feature",
      "geometry": {
        "type": "Point",
        "coordinates": [
          88.722,
          26.554
        ]
      },
      "properties": {
        "count": 1
      }
    },
    {
      "type": "Feature",
      "geometry": {
        "type": "Point",
        "coordinates": [
          88.703,
          26.53
        ]
      },
      "properties": {
        "count": 1
      }
    },
    {
      "type": "Feature",
      "geometry": {
        "type": "Point",
        "coordinates": [
          88.704,
          26.534
        ]
      },
      "properties": {
        "count": 2
      }
    },
    {
      "type": "Feature",
      "geometry": {
        "type": "Point",
        "coordinates": [
          88.718,
          26.557
        ]
      },
      "properties": {
        "count": 2
      }
    },
    {
      "type": "Feature",
      "geometry": {
        "type": "Point",
        "coordinates": [
          88.716,
          26.556
        ]
      },
      "properties": {
        "count": 1
      }
    },
    {
      "type": "Feature",
      "geometry": {
        "type": "Point",
        "coordinates": [
          88.727,
          26.533
        ]
      },
      "properties": {
        "count": 1
      }
    },
    {
      "type": "Feature",
      "geometry": {
        "type": "Point",
        "coordinates": [
          88.713,
          26.532
        ]
      },
      "properties": {
        "count": 1
      }
    },
    {
      "type": "Feature",
      "geometry": {
        "type": "Point",
        "coordinates": [
          88.72,
          26.545
        ]
      },
      "properties": {
        "count": 1
      }
    },
    {
      "type": "Feature",
      "geometry": {
        "type": "Point",
        "coordinates": [
          88.725,
          26.537
        ]
      },
      "properties": {
        "count": 1
      }
    },
    {
      "type": "Feature",
      "geometry": {
        "type": "Point",
        "coordinates": [
          88.698,
          26.538
        ]
      },
      "properties": {
        "count": 1
      }
    },
    {
      "type": "Feature",
      "geometry": {
        "type": "Point",
        "coordinates": [
          88.692,
          26.535
        ]
      },
      "properties": {
        "count": 1
      }
    },
    {
      "type": "Feature",
      "geometry": {
        "type": "Point",
        "coordinates": [
          88.72,
          26.555
        ]
      },
      "properties": {
        "count": 2
      }
    },
    {
      "type": "Feature",
      "geometry": {
        "type": "Point",
        "coordinates": [
          88.701,
          26.532
        ]
      },
      "properties": {
        "count": 1
      }
    },
    {
      "type": "Feature",
      "geometry": {
        "type": "Point",
        "coordinates": [
          88.724,
          26.545
        ]
      },
      "properties": {
        "count": 2
      }
    },
    {
      "type": "Feature",
      "geometry": {
        "type": "Point",
        "coordinates": [
          88.72,
          26.546
        ]
      },
      "properties": {
        "count": 1
      }
    },
    {
      "type": "Feature",
      "geometry": {
        "type": "Point",
        "coordinates": [
          88.716,
          26.551
        ]
      },
      "properties": {
        "count": 1
      }
    },
    {
      "type": "Feature",
      "geometry": {
        "type": "Point",
        "coordinates": [
          88.711,
          26.551
        ]
      },
      "properties": {
        "count": 1
      }
    },
    {
      "type": "Feature",
      "geometry": {
        "type": "Point",
        "coordinates": [
          88.724,
          26.532
        ]
      },
      "properties": {
        "count": 1
      }
    },
    {
      "type": "Feature",
      "geometry": {
        "type": "Point",
        "coordinates": [
          88.704,
          26.544
        ]
      },
      "properties": {
        "count": 1
      }
    },
    {
      "type": "Feature",
      "geometry": {
        "type": "Point",
        "coordinates": [
          88.696,
          26.547
        ]
      },
      "properties": {
        "count": 2
      }
    },
    {
      "type": "Feature",
      "geometry": {
        "type": "Point",
        "coordinates": [
          88.717,
          26.544
        ]
      },
      "properties": {
        "count": 1
      }
    },
    {
      "type": "Feature",
      "geometry": {
        "type": "Point",
        "coordinates": [
          88.704,
          26.552
        ]
      },
      "properties": {
        "count": 1
      }
    },
    {
      "type": "Feature",
      "geometry": {
        "type": "Point",
        "coordinates": [
          88.721,
          26.56
        ]
      },
      "properties": {
        "count": 1
      }
    },
    {
      "type": "Feature",
      "geometry": {
        "type": "Point",
        "coordinates": [
          88.718,
          26.532
        ]
      },
      "properties": {
        "count": 1
      }
    },
    {
      "type": "Feature",
      "geometry": {
        "type": "Point",
        "coordinates": [
          88.714,
          26.552
        ]
      },
      "properties": {
        "count": 1
      }
    },
    {
      "type": "Feature",
      "geometry": {
        "type": "Point",
        "coordinates": [
          88.697,
          26.535
        ]
      },
      "properties": {
        "count": 2
      }
    },
    {
      "type": "Feature",
      "geometry": {
        "type": "Point",
        "coordinates": [
          88.717,
          26.538
        ]
      },
      "properties": {
        "count": 1
      }
    },
    {
      "type": "Feature",
      "geometry": {
        "type": "Point",
        "coordinates": [
          88.702,
          26.546
        ]
      },
      "properties": {
        "count": 1
      }
    },
    {
      "type": "Feature",
      "geometry": {
        "type": "Point",
        "coordinates": [
          88.705,
          26.526
        ]
      },
      "properties": {
        "count": 1
      }
    },
    {
      "type": "Feature",
      "geometry": {
        "type": "Point",
        "coordinates": [
          88.717,
          26.545
        ]
      },
      "properties": {
        "count": 1
      }
    },
    {
      "type": "Feature",
      "geometry": {
        "type": "Point",
        "coordinates": [
          88.727,
          26.552
        ]
      },
      "properties": {
        "count": 1
      }
    },
    {
      "type": "Feature",
      "geometry": {
        "type": "Point",
        "coordinates": [
          88.728,
          26.55
        ]
      },
      "properties": {
        "count": 2
      }
    },
    {
      "type": "Feature",
      "geometry": {
        "type": "Point",
        "coordinates": [
          88.735,
          26.539
        ]
      },
      "properties": {
        "count": 1
      }
    },
    {
      "type": "Feature",
      "geometry": {
        "type": "Point",
        "coordinates": [
          88.718,
          26.558
        ]
      },
      "properties": {
        "count": 1
      }
    },
    {
      "type": "Feature",
      "geometry": {
        "type": "Point",
        "coordinates": [
          88.738,
          26.551
        ]
      },
      "properties": {
        "count": 1
      }
    },
    {
      "type": "Feature",
      "geometry": {
        "type": "Point",
        "coordinates": [
          88.728,
          26.545
        ]
      },
      "properties": {
        "count": 1
      }
    },
    {
      "type": "Feature",
      "geometry": {
        "type": "Point",
        "coordinates": [
          88.712,
          26.551
        ]
      },
      "properties": {
        "count": 1
      }
    },
    {
      "type": "Feature",
      "geometry": {
        "type": "Point",
        "coordinates": [
          88.702,
          26.551
        ]
      },
      "properties": {
        "count": 1
      }
    },
    {
      "type": "Feature",
      "geometry": {
        "type": "Point",
        "coordinates": [
          88.702,
          26.549
        ]
      },
      "properties": {
        "count": 1
      }
    },
    {
      "type": "Feature",
      "geometry": {
        "type": "Point",
        "coordinates": [
          88.728,
          26.551
        ]
      },
      "properties": {
        "count": 1
      }
    },
    {
      "type": "Feature",
      "geometry": {
        "type": "Point",
        "coordinates": [
          88.722,
          26.537
        ]
      },
      "properties": {
        "count": 1
      }
    },
    {
      "type": "Feature",
      "geometry": {
        "type": "Point",
        "coordinates": [
          88.707,
          26.534
        ]
      },
      "properties": {
        "count": 1
      }
    },
    {
      "type": "Feature",
      "geometry": {
        "type": "Point",
        "coordinates": [
          88.699,
          26.549
        ]
      },
      "properties": {
        "count": 1
      }
    },
    {
      "type": "Feature",
      "geometry": {
        "type": "Point",
        "coordinates": [
          88.715,
          26.546
        ]
      },
      "properties": {
        "count": 1
      }
    },
    {
      "type": "Feature",
      "geometry": {
        "type": "Point",
        "coordinates": [
          88.73,
          26.543
        ]
      },
      "properties": {
        "count": 1
      }
    },
    {
      "type": "Feature",
      "geometry": {
        "type": "Point",
        "coordinates": [
          88.703,
          26.546
        ]
      },
      "properties": {
        "count": 1
      }
    },
    {
      "type": "Feature",
      "geometry": {
        "type": "Point",
        "coordinates": [
          88.736,
          26.539
        ]
      },
      "properties": {
        "count": 1
      }
    },
    {
      "type": "Feature",
      "geometry": {
        "type": "Point",
        "coordinates": [
          88.735,
          26.54
        ]
      },
      "properties": {
        "count": 1
      }
    },
    {
      "type": "Feature",
      "geometry": {
        "type": "Point",
        "coordinates": [
          88.717,
          26.534
        ]
      },
      "properties": {
        "count": 2
      }
    },
    {
      "type": "Feature",
      "geometry": {
        "type": "Point",
        "coordinates": [
          88.72,
          26.535
        ]
      },
      "properties": {
        "count": 1
      }
    },
    {
      "type": "Feature",
      "geometry": {
        "type": "Point",
        "coordinates": [
          88.73,
          26.538
        ]
      },
      "properties": {
        "count": 1
      }
    },
    {
      "type": "Feature",
      "geometry": {
        "type": "Point",
        "coordinates": [
          88.714,
          26.531
        ]
      },
      "properties": {
        "count": 1
      }
    },
    {
      "type": "Feature",
      "geometry": {
        "type": "Point",
        "coordinates": [
          88.718,
          26.547
        ]
      },
      "properties": {
        "count": 1
      }
    },
    {
      "type": "Feature",
      "geometry": {
        "type": "Point",
        "coordinates": [
          88.698,
          26.546
        ]
      },
      "properties": {
        "count": 1
      }
    },
    {
      "type": "Feature",
      "geometry": {
        "type": "Point",
        "coordinates": [
          88.715,
          26.56
        ]
      },
      "properties": {
        "count": 1
      }
    },
    {
      "type": "Feature",
      "geometry": {
        "type": "Point",
        "coordinates": [
          88.723,
          26.557
        ]
      },
      "properties": {
        "count": 1
      }
    },
    {
      "type": "Feature",
      "geometry": {
        "type": "Point",
        "coordinates": [
          88.708,
          26.535
        ]
      },
      "properties": {
        "count": 1
      }
    },
    {
      "type": "Feature",
      "geometry": {
        "type": "Point",
        "coordinates": [
          88.717,
          26.55
        ]
      },
      "properties": {
        "count": 1
      }
    },
    {
      "type": "Feature",
      "geometry": {
        "type": "Point",
        "coordinates": [
          88.7,
          26.545
        ]
      },
      "properties": {
        "count": 1
      }
    },
    {
      "type": "Feature",
      "geometry": {
        "type": "Point",
        "coordinates": [
          88.708,
          26.531
        ]
      },
      "properties": {
        "count": 1
      }
    },
    {
      "type": "Feature",
      "geometry": {
        "type": "Point",
        "coordinates": [
          88.703,
          26.552
        ]
      },
      "properties": {
        "count": 1
      }
    },
    {
      "type": "Feature",
      "geometry": {
        "type": "Point",
        "coordinates": [
          88.701,
          26.537
        ]
      },
      "properties": {
        "count": 1
      }
    },
    {
      "type": "Feature",
      "geometry": {
        "type": "Point",
        "coordinates": [
          88.724,
          26.549
        ]
      },
      "properties": {
        "count": 1
      }
    },
    {
      "type": "Feature",
      "geometry": {
        "type": "Point",
        "coordinates": [
          88.736,
          26.542
        ]
      },
      "properties": {
        "count": 1
      }
    },
    {
      "type": "Feature",
      "geometry": {
        "type": "Point",
        "coordinates": [
          88.718,
          26.552
        ]
      },
      "properties": {
        "count": 1
      }
    },
    {
      "type": "Feature",
      "geometry": {
        "type": "Point",
        "coordinates": [
          88.74,
          26.545
        ]
      },
      "properties": {
        "count": 1
      }
    },
    {
      "type": "Feature",
      "geometry": {
        "type": "Point",
        "coordinates": [
          88.705,
          26.548
        ]
      },
      "properties": {
        "count": 1
      }
    },
    {
      "type": "Feature",
      "geometry": {
        "type": "Point",
        "coordinates": [
          88.733,
          26.541
        ]
      },
      "properties": {
        "count": 1
      }
    },
    {
      "type": "Feature",
      "geometry": {
        "type": "Point",
        "coordinates": [
          88.718,
          26.553
        ]
      },
      "properties": {
        "count": 1
      }
    },
    {
      "type": "Feature",
      "geometry": {
        "type": "Point",
        "coordinates": [
          88.739,
          26.543
        ]
      },
      "properties": {
        "count": 1
      }
    },
    {
      "type": "Feature",
      "geometry": {
        "type": "Point",
        "coordinates": [
          88.708,
          26.534
        ]
      },
      "properties": {
        "count": 1
      }
    },
    {
      "type": "Feature",
      "geometry": {
        "type": "Point",
        "coordinates": [
          88.72,
          26.544
        ]
      },
      "properties": {
        "count": 1
      }
    },
    {
      "type": "Feature",
      "geometry": {
        "type": "Point",
        "coordinates": [
          88.729,
          26.54
        ]
      },
      "properties": {
        "count": 1
      }
    },
    {
      "type": "Feature",
      "geometry": {
        "type": "Point",
        "coordinates": [
          88.742,
          26.549
        ]
      },
      "properties": {
        "count": 1
      }
    },
    {
      "type": "Feature",
      "geometry": {
        "type": "Point",
        "coordinates": [
          88.715,
          26.531
        ]
      },
      "properties": {
        "count": 1
      }
    }
  ]
}