{
  "type": "FeatureCollection",
  "features": [
    {
      "type": "Feature",
      "geometry": {
        "type": "Polygon",
        "coordinates": [
          [
            [
              88.705,
              26.544469
            ],
            [
              88.708653,
              26.548524
            ],
            [
              88.71075,
              26.552115
            ],
            [
              88.707449,
              26.555322
            ],
            [
              88.70146,
              26.557248
            ],
            [
              88.697331,
              26.552488
            ],
            [
              88.698025,
              26.546272
            ],
            [
              88.705,
              26.544469
            ]
          ]
        ]
      },
      "properties": {
        "id": "ward-1",
        "wardNumber": 1,
        "name": "Kadamtala",
        "population": 8200,
        "lat": 26.551,
        "lng": 88.705
      }
    },
    {
      "type": "Feature",
      "geometry": {
        "type": "Polygon",
        "coordinates": [
          [
            [
              88.711,
              26.545472
            ],
            [
              88.717225,
              26.545281
            ],
            [
              88.716124,
              26.550494
            ],
            [
              88.713958,
              26.55472
            ],
            [
              88.707598,
              26.555505
            ],
            [
              88.702776,
              26.551096
            ],
            [
              88.705707,
              26.545912
            ],
            [
              88.711,
              26.545472
            ]
          ]
        ]
      },
      "properties": {
        "id": "ward-2",
        "wardNumber": 2,
        "name": "Deshbandhu Para",
        "population": 9100,
        "lat": 26.5495,
        "lng": 88.711
      }
    },
    {
      "type": "Feature",
      "geometry": {
        "type": "Polygon",
        "coordinates": [
          [
            [
              88.718,
              26.542431
            ],
            [
              88.723634,
              26.544181
            ],
            [
              88.726554,
              26.54966
            ],
            [
              88.72035,
              26.552147
            ],
            [
              88.715547,
              26.552329
            ],
            [
              88.713425,
              26.548888
            ],
            [
              88.713996,
              26.545286
            ],
            [
              88.718,
              26.542431
            ]
          ]
        ]
      },
      "properties": {
        "id": "ward-3",
        "wardNumber": 3,
        "name": "Rajbari",
        "population": 7800,
        "lat": 26.548,
        "lng": 88.718
      }
    },
    {
      "type": "Feature",
      "geometry": {
        "type": "Polygon",
        "coordinates": [
          [
            [
              88.722,
              26.541
            ],
            [
              88.727427,
              26.542321
            ],
            [
              88.726827,
              26.546936
            ],
            [
              88.724694,
              26.550756
            ],
            [
              88.719872,
              26.549756
            ],
            [
              88.717511,
              26.546871
            ],
            [
              88.717355,
              26.542852
            ],
            [
              88.722,
              26.541
            ]
          ]
        ]
      },
      "properties": {
        "id": "ward-4",
        "wardNumber": 4,
        "name": "Station Para",
        "population": 10200,
        "lat": 26.546,
        "lng": 88.722
      }
    },
    {
      "type": "Feature",
      "geometry": {
        "type": "Polygon",
        "coordinates": [
          [
            [
              88.726,
              26.536433
            ],
            [
              88.73109,
              26.54055
            ],
            [
              88.733248,
              26.545406
            ],
            [
              88.729802,
              26.550711
            ],
            [
              88.72354,
              26.548342
            ],
            [
              88.7191,
              26.545339
            ],
            [
              88.720206,
              26.540073
            ],
            [
              88.726,
              26.536433
            ]
          ]
        ]
      },
      "properties": {
        "id": "ward-5",
        "wardNumber": 5,
        "name": "Hospital Para",
        "population": 8900,
        "lat": 26.544,
        "lng": 88.726
      }
    },
    {
      "type": "Feature",
      "geometry": {
        "type": "Polygon",
        "coordinates": [
          [
            [
              88.73,
              26.536667
            ],
            [
              88.735205,
              26.538472
            ],
            [
              88.736603,
              26.543281
            ],
            [
              88.732704,
              26.546773
            ],
            [
              88.726936,
              26.547407
            ],
            [
              88.723689,
              26.543224
            ],
            [
              88.726286,
              26.539482
            ],
            [
              88.73,
              26.536667
            ]
          ]
        ]
      },
      "properties": {
        "id": "ward-6",
        "wardNumber": 6,
        "name": "Netaji Para",
        "population": 7600,
        "lat": 26.542,
        "lng": 88.73
      }
    },
    {
      "type": "Feature",
      "geometry": {
        "type": "Polygon",
        "coordinates": [
          [
            [
              88.734,
              26.533849
            ],
            [
              88.738063,
              26.537246
            ],
            [
              88.741835,
              26.54152
            ],
            [
              88.736617,
              26.544619
            ],
            [
              88.730031,
              26.547006
            ],
            [
              88.728643,
              26.541039
            ],
            [
              88.727524,
              26.53561
            ],
            [
              88.734,
              26.533849
            ]
          ]
        ]
      },
      "properties": {
        "id": "ward-7",
        "wardNumber": 7,
        "name": "Khagrabari",
        "population": 6800,
        "lat": 26.54,
        "lng": 88.734
      }
    },
    {
      "type": "Feature",
      "geometry": {
        "type": "Polygon",
        "coordinates": [
          [
            [
              88.727,
              26.533854
            ],
            [
              88.73214,
              26.534516
            ],
            [
              88.731964,
              26.538963
            ],
            [
              88.730573,
              26.544307
            ],
            [
              88.723939,
              26.543403
            ],
            [
              88.722327,
              26.538907
            ],
            [
              88.723271,
              26.535472
            ],
            [
              88.727,
              26.533854
            ]
          ]
        ]
      },
      "properties": {
        "id": "ward-8",
        "wardNumber": 8,
        "name": "Ananda Para",
        "population": 9300,
        "lat": 26.538,
        "lng": 88.727
      }
    },
    {
      "type": "Feature",
      "geometry": {
        "type": "Polygon",
        "coordinates": [
          [
            [
              88.721,
              26.53006
            ],
            [
              88.725577,
              26.532897
            ],
            [
              88.728481,
              26.537451
            ],
            [
              88.72349,
              26.540394
            ],
            [
              88.71802,
              26.54126
            ],
            [
              88.711929,
              26.53776
            ],
            [
              88.717116,
              26.533367
            ],
            [
              88.721,
              26.53006
            ]
          ]
        ]
      },
      "properties": {
        "id": "ward-9",
        "wardNumber": 9,
        "name": "Dinbazar",
        "population": 11200,
        "lat": 26.536,
        "lng": 88.721
      }
    },
    {
      "type": "Feature",
      "geometry": {
        "type": "Polygon",
        "coordinates": [
          [
            [
              88.715,
              26.529118
            ],
            [
              88.720481,
              26.530284
            ],
            [
              88.72021,
              26.535011
            ],
            [
              88.71872,
              26.540566
            ],
            [
              88.712534,
              26.538353
            ],
            [
              88.707926,
              26.535372
            ],
            [
              88.707894,
              26.529183
            ],
            [
              88.715,
              26.529118
            ]
          ]
        ]
      },
      "properties": {
        "id": "ward-10",
        "wardNumber": 10,
        "name": "Kotwali",
        "population": 10800,
        "lat": 26.534,
        "lng": 88.715
      }
    },
    {
      "type": "Feature",
      "geometry": {
        "type": "Polygon",
        "coordinates": [
          [
            [
              88.709,
              26.524058
            ],
            [
              88.712766,
              26.529447
            ],
            [
              88.716903,
              26.533533
            ],
            [
              88.712003,
              26.5373
            ],
            [
              88.705024,
              26.539018
            ],
            [
              88.70262,
              26.533238
            ],
            [
              88.701921,
              26.527202
            ],
            [
              88.709,
              26.524058
            ]
          ]
        ]
      },
      "properties": {
        "id": "ward-11",
        "wardNumber": 11,
        "name": "Rajganj Road",
        "population": 8400,
        "lat": 26.532,
        "lng": 88.709
      }
    },
    {
      "type": "Feature",
      "geometry": {
        "type": "Polygon",
        "coordinates": [
          [
            [
              88.703,
              26.523562
            ],
            [
              88.709967,
              26.525277
            ],
            [
              88.709617,
              26.531284
            ],
            [
              88.706487,
              26.536154
            ],
            [
              88.699034,
              26.537001
            ],
            [
              88.696077,
              26.531343
            ],
            [
              88.696631,
              26.525683
            ],
            [
              88.703,
              26.523562
            ]
          ]
        ]
      },
      "properties": {
        "id": "ward-12",
        "wardNumber": 12,
        "name": "Malopara",
        "population": 7200,
        "lat": 26.53,
        "lng": 88.703
      }
    },
    {
      "type": "Feature",
      "geometry": {
        "type": "Polygon",
        "coordinates": [
          [
            [
              88.698,
              26.528327
            ],
            [
              88.702084,
              26.533232
            ],
            [
              88.705092,
              26.537376
            ],
            [
              88.701001,
              26.541297
            ],
            [
              88.693987,
              26.543083
            ],
            [
              88.691747,
              26.537213
            ],
            [
              88.692732,
              26.532429
            ],
            [
              88.698,
              26.528327
            ]
          ]
        ]
      },
      "properties": {
        "id": "ward-13",
        "wardNumber": 13,
        "name": "Babu Para",
        "population": 9600,
        "lat": 26.536,
        "lng": 88.698
      }
    },
    {
      "type": "Feature",
      "geometry": {
        "type": "Polygon",
        "coordinates": [
          [
            [
              88.695,
              26.535756
            ],
            [
              88.702199,
              26.53512
            ],
            [
              88.700152,
              26.541
            ],
            [
              88.698546,
              26.546259
            ],
            [
              88.691237,
              26.546641
            ],
            [
              88.686995,
              26.541553
            ],
            [
              88.690286,
              26.536805
            ],
            [
              88.695,
              26.535756
            ]
          ]
        ]
      },
      "properties": {
        "id": "ward-14",
        "wardNumber": 14,
        "name": "Kamat Para",
        "population": 8100,
        "lat": 26.54,
        "lng": 88.695
      }
    },
    {
      "type": "Feature",
      "geometry": {
        "type": "Polygon",
        "coordinates": [
          [
            [
              88.699,
              26.536109
            ],
            [
              88.704702,
              26.540135
            ],
            [
              88.705699,
              26.5453
            ],
            [
              88.702087,
              26.549448
            ],
            [
              88.695394,
              26.550365
            ],
            [
              88.689841,
              26.545777
            ],
            [
              88.693831,
              26.540497
            ],
            [
              88.699,
              26.536109
            ]
          ]
        ]
      },
      "properties": {
        "id": "ward-15",
        "wardNumber": 15,
        "name": "Santosh Para",
        "population": 7400,
        "lat": 26.544,
        "lng": 88.699
      }
    },
    {
      "type": "Feature",
      "geometry": {
        "type": "Polygon",
        "coordinates": [
          [
            [
              88.702,
              26.543955
            ],
            [
              88.707816,
              26.544057
            ],
            [
              88.706528,
              26.548878
            ],
            [
              88.705067,
              26.553414
            ],
            [
              88.697949,
              26.555149
            ],
            [
              88.696178,
              26.54913
            ],
            [
              88.69471,
              26.543059
            ],
            [
              88.702,
              26.543955
            ]
          ]
        ]
      },
      "properties": {
        "id": "ward-16",
        "wardNumber": 16,
        "name": "Kachhari Para",
        "population": 9800,
        "lat": 26.548,
        "lng": 88.702
      }
    },
    {
      "type": "Feature",
      "geometry": {
        "type": "Polygon",
        "coordinates": [
          [
            [
              88.712,
              26.545714
            ],
            [
              88.716345,
              26.549054
            ],
            [
              88.719503,
              26.553456
            ],
            [
              88.715986,
              26.559036
            ],
            [
              88.709938,
              26.555639
            ],
            [
              88.705417,
              26.553277
            ],
            [
              88.707089,
              26.548671
            ],
            [
              88.712,
              26.545714
            ]
          ]
        ]
      },
      "properties": {
        "id": "ward-17",
        "wardNumber": 17,
        "name": "Titu Para",
        "population": 6900,
        "lat": 26.552,
        "lng": 88.712
      }
    },
    {
      "type": "Feature",
      "geometry": {
        "type": "Polygon",
        "coordinates": [
          [
            [
              88.718,
              26.551199
            ],
            [
              88.72513,
              26.551167
            ],
            [
              88.726954,
              26.557737
            ],
            [
              88.720023,
              26.55957
            ],
            [
              88.714225,
              26.562663
            ],
            [
              88.710151,
              26.557523
            ],
            [
              88.711838,
              26.551823
            ],
            [
              88.718,
              26.551199
            ]
          ]
        ]
      },
      "properties": {
        "id": "ward-18",
        "wardNumber": 18,
        "name": "Bhagat Singh Colony",
        "population": 8700,
        "lat": 26.556,
        "lng": 88.718
      }
    },
    {
      "type": "Feature",
      "geometry": {
        "type": "Polygon",
        "coordinates": [
          [
            [
              88.728,
              26.54485
            ],
            [
              88.733771,
              26.546088
            ],
            [
              88.733705,
              26.551107
            ],
            [
              88.731692,
              26.556516
            ],
            [
              88.725033,
              26.555238
            ],
            [
              88.721976,
              26.551169
            ],
            [
              88.721007,
              26.54526
            ],
            [
              88.728,
              26.54485
            ]
          ]
        ]
      },
      "properties": {
        "id": "ward-19",
        "wardNumber": 19,
        "name": "Purba Jalpaiguri",
        "population": 7300,
        "lat": 26.55,
        "lng": 88.728
      }
    },
    {
      "type": "Feature",
      "geometry": {
        "type": "Polygon",
        "coordinates": [
          [
            [
              88.738,
              26.540073
            ],
            [
              88.74369,
              26.542143
            ],
            [
              88.746304,
              26.547611
            ],
            [
              88.740656,
              26.550688
            ],
            [
              88.735343,
              26.550689
            ],
            [
              88.730253,
              26.547503
            ],
            [
              88.73258,
              26.542326
            ],
            [
              88.738,
              26.540073
            ]
          ]
        ]
      },
      "properties": {
        "id": "ward-20",
        "wardNumber": 20,
        "name": "Paschim Palli",
        "population": 6500,
        "lat": 26.546,
        "lng": 88.738
      }
    }
  ]
}